{"id":"01H6Y8QRJ2P7V51MWPFFKVMP07","artccId":"ZOA","name":"Area E RW (08/03/23 1800z)","precipitation":"None","windLayers":[{"id":"01H6YA04RKV4B4V2YFBQCTWXZ5","altitude":3000,"direction":170,"speed":7},{"id":"01H6Y8TMN5YX2A43V9VSTA1YMN","altitude":6000,"direction":140,"speed":5},{"id":"01H6Y8V9VNAYT9TTDW1FFA6DGW","altitude":9000,"direction":140,"speed":6},{"id":"01H6Y8VN1D5W639XZR462QVMJX","altitude":12000,"direction":160,"speed":13},{"id":"01H6Y8W1EFDMQSQ1Y8W7V18PD0","altitude":18000,"direction":220,"speed":9},{"id":"01H6Y8WF9ABWT86FBMMN7WXN73","altitude":24000,"direction":180,"speed":8},{"id":"01H6Y8WW34RX801BXGDKYMN5KE","altitude":30000,"direction":220,"speed":27}],"metars":["KSMF 031753Z 20008KT 10SM CLR 23/13 A3003 RMK AO2 SLP169 T02280128 10228 20150 51004","KMCC 031735Z AUTO 20009KT 10SM CLR 21/12 A3004 RMK AO2","KLHM 031735Z AUTO 16009KT 10SM CLR 22/10 A3003 RMK AO1","KMYV 031753Z AUTO 19007KT 10SM CLR 24/12 A3004 RMK AO2 SLP176 T02390122 10239 20144 51003","KBAB 031755Z AUTO 19008KT 10SM CLR 24/12 A3003 RMK AO2 SLP172 T02380118 10239 20143 51003 $","KMHR 031735Z AUTO 23010KT 10SM CLR 22/11 A3003 RMK AO2","KSAC 031753Z 18007KT 10SM CLR 22/13 A3005 RMK AO2 SLP174 T02170128 10217 20144 51004"]}