{"id":"01HTY06CDMYXR5BS55E22SGAF2","artccId":"ZOA","name":"C1-ZOA-8","precipitation":"None","windLayers":[{"id":"01HTY0947RCCBTPGBVYGKPGE9W","altitude":3000,"direction":180,"speed":18,"gusts":25},{"id":"01HTY094Y66HEG7GEBA2ZSSHR2","altitude":6000,"direction":200,"speed":20,"gusts":27},{"id":"01HTY095BQ06WG339MKD1JSN13","altitude":9000,"direction":210,"speed":22,"gusts":30},{"id":"01HTY0960Y98N1690GJBTGPB1Q","altitude":15000,"direction":240,"speed":35,"gusts":40},{"id":"01HTY0965Y3BP9W7FTAZ8V0KR9","altitude":21000,"direction":220,"speed":64,"gusts":65},{"id":"01HTY0DRDH6S2X5578XSGDQW7M","altitude":27000,"direction":260,"speed":84,"gusts":85},{"id":"01HTY0EBJN64JJZ9JEENSM4RB6","altitude":36000,"direction":240,"speed":99,"gusts":100},{"id":"01HTY0EZR5FFRTZECP2DZRH1P4","altitude":42000,"direction":200,"speed":54,"gusts":55}],"metars":["KSFO 042356Z 18016G22KT 10SM FEW023 SCT040 OVC090 11/02 A2972 RMK AO2 PK WND 21030/2327 RAB32E36 SLP063 P0000 60001 T01060022 10128 20083 56011","KSJC 042353Z 18015G20KT 10SM BKN035TCU BKN055 12/01 A2973 RMK AO2 SLP068 TCU ALQDS 60001 T01220006 10139 20083 56010","KOAK 042353Z 22010KT 10SM SCT040 BKN095 BKN110 OVC140 11/02 A2974 RMK AO2 SLP069 60000 T01110022 10128 20083 58006","KMRY 042354Z 20013G22KT 10SM SCT036 10/03 A2977 RMK AO2 PK WND 21027/2318 SLP094 60014 T01000028 10111 20078 58017"]}