{"id":"01J7EWDDP3P87KHP0Z5W9SMDMY","artccId":"ZOA","name":"SFO SE plan wind","precipitation":"Rain","windLayers":[{"id":"01J7EWW0KPM4663NV0KFM9NCT6","altitude":1000,"direction":140,"speed":27,"gusts":37},{"id":"01J7EWX00VHFC5X3X7MYCGCFFB","altitude":5000,"direction":170,"speed":35,"gusts":40},{"id":"01J7EWXRJRGAVNMVWVWH6G3BMX","altitude":10000,"direction":190,"speed":50},{"id":"01J7EWYQGXRK3YT0VN221TAADC","altitude":15000,"direction":190,"speed":55}],"metars":["KSFO 022256Z 15024G35KT 10SM -RA FEW017 BKN035 BKN044 17/12 A2929"]}