[{"icaoId":"KSFO","receiptTime":"2026-03-06T20:00:22.454Z","obsTime":1772826960,"reportTime":"2026-03-06T20:00:00.000Z","temp":18.9,"dewp":2.8,"wdir":350,"wspd":10,"visib":"10+","altim":1021.4,"slp":1021.3,"qcField":4,"metarType":"METAR","rawOb":"METAR KSFO 061956Z 35010KT 10SM FEW200 19/03 A3016 RMK AO2 SLP213 T01890028","lat":37.6196,"lon":-122.3656,"elev":2,"name":"San Francisco Intl, CA, US","cover":"FEW","clouds":[{"cover":"FEW","base":20000}],"fltCat":"VFR"},{"icaoId":"KTCY","receiptTime":"2026-03-06T20:00:39.390Z","obsTime":1772826900,"reportTime":"2026-03-06T20:00:00.000Z","temp":17,"dewp":1,"wdir":320,"wspd":12,"visib":"10+","altim":1021.8,"qcField":6,"metarType":"METAR","rawOb":"METAR KTCY 061955Z AUTO 32012KT 10SM CLR 17/01 A3017 RMK A01","lat":37.6919,"lon":-121.4442,"elev":51,"name":"Tracy Muni, CA, US","cover":"CLR","clouds":[],"fltCat":"VFR"},{"icaoId":"KMHR","receiptTime":"2026-03-06T20:00:17.975Z","obsTime":1772826900,"reportTime":"2026-03-06T20:00:00.000Z","temp":19,"dewp":1,"wdir":340,"wspd":18,"wgst":24,"visib":"10+","altim":1020.1,"qcField":6,"metarType":"METAR","rawOb":"METAR KMHR 061955Z AUTO 34018G24KT 10SM CLR 19/01 A3012 RMK AO2","lat":38.56,"lon":-121.284,"elev":30,"name":"Sacramento/Mather Fld, CA, US","cover":"CLR","clouds":[],"fltCat":"VFR"},{"icaoId":"KNUQ","receiptTime":"2026-03-06T20:02:17.521Z","obsTime":1772826900,"reportTime":"2026-03-06T20:00:00.000Z","temp":19,"dewp":0,"wdir":300,"wspd":7,"visib":"10+","altim":1021.4,"qcField":6,"metarType":"METAR","rawOb":"METAR KNUQ 061955Z AUTO 30007KT 260V320 10SM CLR 19/M00 A3016 RMK AO2","lat":37.4059,"lon":-122.0491,"elev":9,"name":"Moffett Fed Airfld, CA, US","cover":"CLR","clouds":[],"fltCat":"VFR"},{"icaoId":"KSUU","receiptTime":"2026-03-06T19:58:12.768Z","obsTime":1772826900,"reportTime":"2026-03-06T20:00:00.000Z","temp":19.5,"dewp":1,"wdir":10,"wspd":18,"wgst":21,"visib":"10+","altim":1020.4,"slp":1021,"qcField":14,"metarType":"METAR","rawOb":"METAR KSUU 061955Z AUTO 01018G21KT 10SM CLR 20/01 A3013 RMK AO2 PK WND 36029/28 SLP210 T01950010 $","lat":38.25,"lon":-121.938,"elev":9,"name":"Fairfield/Travis AFB, CA, US","cover":"CLR","clouds":[],"fltCat":"VFR"},{"icaoId":"KSQL","receiptTime":"2026-03-06T19:58:00.266Z","obsTime":1772826900,"reportTime":"2026-03-06T20:00:00.000Z","temp":18,"dewp":0,"wdir":300,"wspd":6,"visib":"10+","altim":1022.1,"qcField":0,"metarType":"METAR","rawOb":"METAR KSQL 061955Z 30006KT 10SM SKC 18/00 A3018","lat":37.5119,"lon":-122.2483,"elev":1,"name":"San Carlos Arpt, CA, US","cover":"SKC","clouds":[],"fltCat":"VFR"},{"icaoId":"KAPC","receiptTime":"2026-03-06T19:58:59.867Z","obsTime":1772826840,"reportTime":"2026-03-06T20:00:00.000Z","temp":20.6,"dewp":-1.1,"wdir":20,"wspd":21,"wgst":28,"visib":"10+","altim":1020.7,"slp":1019.8,"qcField":4,"metarType":"METAR","rawOb":"METAR KAPC 061954Z 02021G28KT 10SM CLR 21/M01 A3014 RMK AO2 PK WND 01028/1946 SLP198 T02061011","lat":38.2075,"lon":-122.2804,"elev":5,"name":"Napa Cnty Arpt, CA, US","cover":"CLR","clouds":[],"fltCat":"VFR"},{"icaoId":"KHWD","receiptTime":"2026-03-06T19:58:40.378Z","obsTime":1772826840,"reportTime":"2026-03-06T20:00:00.000Z","temp":18.9,"dewp":2.2,"visib":"10+","altim":1021.1,"slp":1022,"qcField":4,"metarType":"METAR","rawOb":"METAR KHWD 061954Z 10SM CLR 19/02 A3015 RMK AO2 SLP220 T01890022","lat":37.6589,"lon":-122.1212,"elev":9,"name":"Hayward Exec, CA, US","cover":"CLR","clouds":[],"fltCat":"VFR"},{"icaoId":"KSMF","receiptTime":"2026-03-06T19:58:49.002Z","obsTime":1772826780,"reportTime":"2026-03-06T20:00:00.000Z","temp":18.3,"dewp":4.4,"wdir":330,"wspd":17,"wgst":25,"visib":"10+","altim":1021.1,"slp":1021,"qcField":4,"metarType":"METAR","rawOb":"METAR KSMF 061953Z 33017G25KT 10SM FEW200 18/04 A3015 RMK AO2 PK WND 34027/1942 SLP210 T01830044","lat":38.7007,"lon":-121.5948,"elev":7,"name":"Sacramento Intl, CA, US","cover":"FEW","clouds":[{"cover":"FEW","base":20000}],"fltCat":"VFR"},{"icaoId":"KLVK","receiptTime":"2026-03-06T19:58:38.319Z","obsTime":1772826780,"reportTime":"2026-03-06T20:00:00.000Z","temp":17.8,"dewp":-2.2,"wdir":20,"wspd":7,"wgst":18,"visib":"10+","altim":1021.4,"slp":1021.2,"qcField":4,"metarType":"METAR","rawOb":"METAR KLVK 061953Z 02007G18KT 330V060 10SM CLR 18/M02 A3016 RMK AO2 SLP212 T01781022","lat":37.6931,"lon":-121.8149,"elev":120,"name":"Livermore Muni, CA, US","cover":"CLR","clouds":[],"fltCat":"VFR"},{"icaoId":"KSJC","receiptTime":"2026-03-06T19:58:38.912Z","obsTime":1772826780,"reportTime":"2026-03-06T20:00:00.000Z","temp":18.9,"dewp":1.7,"wdir":330,"wspd":13,"wgst":19,"visib":"10+","altim":1021.4,"slp":1021.1,"qcField":4,"metarType":"METAR","rawOb":"METAR KSJC 061953Z 33013G19KT 10SM FEW055 SCT080 SCT110 19/02 A3016 RMK AO2 SLP211 T01890017","lat":37.3594,"lon":-121.9244,"elev":13,"name":"San Jose Intl Arpt, CA, US","cover":"SCT","clouds":[{"cover":"FEW","base":5500},{"cover":"SCT","base":8000},{"cover":"SCT","base":11000}],"fltCat":"VFR"},{"icaoId":"KMCE","receiptTime":"2026-03-06T19:58:48.217Z","obsTime":1772826780,"reportTime":"2026-03-06T20:00:00.000Z","temp":15.6,"dewp":5,"wdir":30,"wspd":3,"visib":"10+","altim":1021.1,"slp":1020.9,"qcField":6,"metarType":"METAR","rawOb":"METAR KMCE 061953Z AUTO 03003KT 10SM CLR 16/05 A3015 RMK AO2 SLP209 T01560050","lat":37.286,"lon":-120.5179,"elev":49,"name":"Merced/Macready Fld, CA, US","cover":"CLR","clouds":[],"fltCat":"VFR"},{"icaoId":"KMOD","receiptTime":"2026-03-06T19:58:48.238Z","obsTime":1772826780,"reportTime":"2026-03-06T20:00:00.000Z","temp":16.1,"dewp":3.3,"wdir":320,"wspd":11,"wgst":18,"visib":"10+","altim":1021.1,"slp":1020.9,"qcField":4,"metarType":"METAR","rawOb":"METAR KMOD 061953Z 32011G18KT 10SM CLR 16/03 A3015 RMK AO2 SLP209 T01610033","lat":37.6254,"lon":-120.9549,"elev":25,"name":"Modesto/Sham Fld, CA, US","cover":"CLR","clouds":[],"fltCat":"VFR"},{"icaoId":"KSTS","receiptTime":"2026-03-06T19:58:48.555Z","obsTime":1772826780,"reportTime":"2026-03-06T20:00:00.000Z","temp":19.4,"dewp":2.8,"wdir":0,"wspd":0,"visib":"10+","altim":1021.8,"slp":1021,"qcField":4,"metarType":"METAR","rawOb":"METAR KSTS 061953Z 00000KT 10SM CLR 19/03 A3017 RMK AO2 SLP210 T01940028","lat":38.5037,"lon":-122.811,"elev":35,"name":"Santa Rosa/Schulz Arpt, CA, US","cover":"CLR","clouds":[],"fltCat":"VFR"},{"icaoId":"KCCR","receiptTime":"2026-03-06T19:58:56.751Z","obsTime":1772826780,"reportTime":"2026-03-06T20:00:00.000Z","temp":20,"dewp":-1.7,"wdir":30,"wspd":13,"wgst":19,"visib":"10+","altim":1021.4,"slp":1019.9,"qcField":4,"metarType":"METAR","rawOb":"METAR KCCR 061953Z 03013G19KT 10SM CLR 20/M02 A3016 RMK AO2 SLP199 T02001017","lat":37.9916,"lon":-122.0527,"elev":6,"name":"Concord/Buchanan Fld, CA, US","cover":"CLR","clouds":[],"fltCat":"VFR"},{"icaoId":"KOAK","receiptTime":"2026-03-06T19:58:49.366Z","obsTime":1772826780,"reportTime":"2026-03-06T20:00:00.000Z","temp":21.1,"dewp":-0.6,"wdir":10,"wspd":10,"visib":"10+","altim":1021.4,"slp":1021.3,"qcField":4,"metarType":"METAR","rawOb":"METAR KOAK 061953Z 01010KT 10SM FEW250 21/M01 A3016 RMK AO2 SLP213 T02111006","lat":37.7178,"lon":-122.233,"elev":3,"name":"Oakland Intl, CA, US","cover":"FEW","clouds":[{"cover":"FEW","base":25000}],"fltCat":"VFR"},{"icaoId":"KSAC","receiptTime":"2026-03-06T19:58:38.896Z","obsTime":1772826780,"reportTime":"2026-03-06T20:00:00.000Z","temp":18.9,"dewp":3.3,"wdir":330,"wspd":14,"wgst":26,"visib":"10+","altim":1021.1,"slp":1020.8,"qcField":4,"metarType":"METAR","rawOb":"METAR KSAC 061953Z 33014G26KT 10SM CLR 19/03 A3015 RMK AO2 PK WND 33026/1950 SLP208 T01890033","lat":38.5066,"lon":-121.496,"elev":5,"name":"Sacramento Exec, CA, US","cover":"CLR","clouds":[],"fltCat":"VFR"},{"icaoId":"KE16","receiptTime":"2026-03-06T20:06:05.287Z","obsTime":1772826600,"reportTime":"2026-03-06T20:00:00.000Z","temp":19,"dewp":2,"wdir":300,"wspd":12,"wgst":19,"visib":"10+","altim":1021.1,"qcField":6,"metarType":"METAR","rawOb":"METAR KE16 061950Z AUTO 30012G19KT 10SM CLR 19/02 A3015 RMK AO2","lat":37.0797,"lon":-121.598,"elev":84,"name":"San Martin Arpt, CA, US","cover":"CLR","clouds":[],"fltCat":"VFR"},{"icaoId":"KPAO","receiptTime":"2026-03-06T19:48:36.780Z","obsTime":1772826420,"reportTime":"2026-03-06T20:00:00.000Z","temp":19,"dewp":0,"wdir":320,"wspd":15,"wgst":17,"visib":"10+","altim":1021.8,"qcField":0,"metarType":"METAR","rawOb":"METAR KPAO 061947Z 32015G17KT 10SM SKC 19/00 A3017","lat":37.458,"lon":-122.112,"elev":2,"name":"Palo Alto Arpt, CA, US","cover":"SKC","clouds":[],"fltCat":"VFR"},{"icaoId":"KRHV","receiptTime":"2026-03-06T19:46:17.231Z","obsTime":1772826420,"reportTime":"2026-03-06T20:00:00.000Z","temp":19,"dewp":1,"wdir":340,"wspd":15,"wgst":24,"visib":"10+","altim":1021.4,"qcField":0,"metarType":"METAR","rawOb":"METAR KRHV 061947Z 34015G24KT 10SM FEW050 19/01 A3016","lat":37.3331,"lon":-121.82,"elev":37,"name":"San Jose/Reid-Hillview Arpt, CA, US","cover":"FEW","clouds":[{"cover":"FEW","base":5000}],"fltCat":"VFR"}]