[{"icaoId":"KSUU","dbPopTime":"2026-03-06T19:00:19.943Z","bulletinTime":"2026-03-06T19:00:00.000Z","issueTime":"2026-03-06T19:00:00.000Z","validTimeFrom":1772823600,"validTimeTo":1772931600,"rawTAF":"TAF KSUU 061900Z 0619/0801 35015G25KT 9999 SKC QNH3008INS TEMPO 0715/0717 01025G35KT 510005 TX22/0622Z TN13/0713Z","mostRecent":1,"remarks":"","lat":38.25,"lon":-121.938,"elev":9,"prior":4,"name":"Fairfield/Travis AFB","fcsts":[{"timeFrom":1772823600,"timeTo":1772931600,"timeBec":null,"fcstChange":null,"probability":null,"wdir":350,"wspd":15,"wgst":25,"wshearHgt":null,"wshearDir":null,"wshearSpd":null,"visib":"6+","altim":1019,"vertVis":null,"wxString":null,"notDecoded":null,"clouds":[{"cover":"SKC","base":null,"type":null}],"icgTurb":[],"temp":[]},{"timeFrom":1772895600,"timeTo":1772902800,"timeBec":null,"fcstChange":"TEMPO","probability":null,"wdir":10,"wspd":25,"wgst":35,"wshearHgt":null,"wshearDir":null,"wshearSpd":null,"visib":"","altim":null,"vertVis":null,"wxString":null,"notDecoded":null,"clouds":[],"icgTurb":[{"impactVar":"TURB","intensity":1,"minAlt":null,"maxAlt":5000}],"temp":[]}]},{"icaoId":"KSAC","dbPopTime":"2026-03-06T17:20:09.456Z","bulletinTime":"2026-03-06T17:20:00.000Z","issueTime":"2026-03-06T17:20:00.000Z","validTimeFrom":1772820000,"validTimeTo":1772906400,"rawTAF":"TAF KSAC 061720Z 0618/0718 34018G28KT P6SM FEW250 FM070500 34011KT P6SM SKC","mostRecent":1,"remarks":"","lat":38.50658,"lon":-121.49604,"elev":5,"prior":6,"name":"Sacramento Exec","fcsts":[{"timeFrom":1772820000,"timeTo":1772859600,"timeBec":null,"fcstChange":null,"probability":null,"wdir":340,"wspd":18,"wgst":28,"wshearHgt":null,"wshearDir":null,"wshearSpd":null,"visib":"6+","altim":null,"vertVis":null,"wxString":null,"notDecoded":null,"clouds":[{"cover":"FEW","base":25000,"type":null}],"icgTurb":[],"temp":[]},{"timeFrom":1772859600,"timeTo":1772906400,"timeBec":null,"fcstChange":"FM","probability":null,"wdir":340,"wspd":11,"wgst":null,"wshearHgt":null,"wshearDir":null,"wshearSpd":null,"visib":"6+","altim":null,"vertVis":null,"wxString":null,"notDecoded":null,"clouds":[{"cover":"SKC","base":null,"type":null}],"icgTurb":[],"temp":[]}]},{"icaoId":"KMHR","dbPopTime":"2026-03-06T17:20:09.791Z","bulletinTime":"2026-03-06T17:20:00.000Z","issueTime":"2026-03-06T17:20:00.000Z","validTimeFrom":1772820000,"validTimeTo":1772906400,"rawTAF":"TAF KMHR 061720Z 0618/0718 34012G24KT P6SM FEW250 FM070300 34010KT P6SM SKC","mostRecent":1,"remarks":"","lat":38.55995,"lon":-121.28401,"elev":30,"prior":6,"name":"Sacramento/Mather Fld","fcsts":[{"timeFrom":1772820000,"timeTo":1772852400,"timeBec":null,"fcstChange":null,"probability":null,"wdir":340,"wspd":12,"wgst":24,"wshearHgt":null,"wshearDir":null,"wshearSpd":null,"visib":"6+","altim":null,"vertVis":null,"wxString":null,"notDecoded":null,"clouds":[{"cover":"FEW","base":25000,"type":null}],"icgTurb":[],"temp":[]},{"timeFrom":1772852400,"timeTo":1772906400,"timeBec":null,"fcstChange":"FM","probability":null,"wdir":340,"wspd":10,"wgst":null,"wshearHgt":null,"wshearDir":null,"wshearSpd":null,"visib":"6+","altim":null,"vertVis":null,"wxString":null,"notDecoded":null,"clouds":[{"cover":"SKC","base":null,"type":null}],"icgTurb":[],"temp":[]}]},{"icaoId":"KMOD","dbPopTime":"2026-03-06T17:20:10.135Z","bulletinTime":"2026-03-06T17:20:00.000Z","issueTime":"2026-03-06T17:20:00.000Z","validTimeFrom":1772820000,"validTimeTo":1772906400,"rawTAF":"TAF KMOD 061720Z 0618/0718 32011KT P6SM FEW250","mostRecent":1,"remarks":"","lat":37.62544,"lon":-120.95492,"elev":25,"prior":3,"name":"Modesto/Sham Fld","fcsts":[{"timeFrom":1772820000,"timeTo":1772906400,"timeBec":null,"fcstChange":null,"probability":null,"wdir":320,"wspd":11,"wgst":null,"wshearHgt":null,"wshearDir":null,"wshearSpd":null,"visib":"6+","altim":null,"vertVis":null,"wxString":null,"notDecoded":null,"clouds":[{"cover":"FEW","base":25000,"type":null}],"icgTurb":[],"temp":[]}]},{"icaoId":"KMCE","dbPopTime":"2026-03-06T17:20:18.337Z","bulletinTime":"2026-03-06T17:20:00.000Z","issueTime":"2026-03-06T17:20:00.000Z","validTimeFrom":1772820000,"validTimeTo":1772906400,"rawTAF":"TAF KMCE 061720Z 0618/0718 33006KT P6SM SKC","mostRecent":1,"remarks":"","lat":37.28597,"lon":-120.5179,"elev":49,"prior":4,"name":"Merced/Macready Fld","fcsts":[{"timeFrom":1772820000,"timeTo":1772906400,"timeBec":null,"fcstChange":null,"probability":null,"wdir":330,"wspd":6,"wgst":null,"wshearHgt":null,"wshearDir":null,"wshearSpd":null,"visib":"6+","altim":null,"vertVis":null,"wxString":null,"notDecoded":null,"clouds":[{"cover":"SKC","base":null,"type":null}],"icgTurb":[],"temp":[]}]},{"icaoId":"KAPC","dbPopTime":"2026-03-06T17:21:04.293Z","bulletinTime":"2026-03-06T17:20:00.000Z","issueTime":"2026-03-06T17:20:00.000Z","validTimeFrom":1772820000,"validTimeTo":1772906400,"rawTAF":"TAF KAPC 061720Z 0618/0718 36018G28KT P6SM SKC FM070200 34010KT P6SM SKC","mostRecent":1,"remarks":"","lat":38.2075,"lon":-122.28041,"elev":5,"prior":5,"name":"Napa Cnty Arpt","fcsts":[{"timeFrom":1772820000,"timeTo":1772848800,"timeBec":null,"fcstChange":null,"probability":null,"wdir":360,"wspd":18,"wgst":28,"wshearHgt":null,"wshearDir":null,"wshearSpd":null,"visib":"6+","altim":null,"vertVis":null,"wxString":null,"notDecoded":null,"clouds":[{"cover":"SKC","base":null,"type":null}],"icgTurb":[],"temp":[]},{"timeFrom":1772848800,"timeTo":1772906400,"timeBec":null,"fcstChange":"FM","probability":null,"wdir":340,"wspd":10,"wgst":null,"wshearHgt":null,"wshearDir":null,"wshearSpd":null,"visib":"6+","altim":null,"vertVis":null,"wxString":null,"notDecoded":null,"clouds":[{"cover":"SKC","base":null,"type":null}],"icgTurb":[],"temp":[]}]},{"icaoId":"KSFO","dbPopTime":"2026-03-06T17:21:04.359Z","bulletinTime":"2026-03-06T17:20:00.000Z","issueTime":"2026-03-06T17:20:00.000Z","validTimeFrom":1772820000,"validTimeTo":1772928000,"rawTAF":"TAF KSFO 061720Z 0618/0724 01007KT P6SM FEW250 FM062300 33010G20KT P6SM SKC FM070600 31006KT P6SM SKC FM071400 02005KT P6SM SKC","mostRecent":1,"remarks":"","lat":37.61961,"lon":-122.36561,"elev":2,"prior":1,"name":"San Francisco Intl","fcsts":[{"timeFrom":1772820000,"timeTo":1772838000,"timeBec":null,"fcstChange":null,"probability":null,"wdir":10,"wspd":7,"wgst":null,"wshearHgt":null,"wshearDir":null,"wshearSpd":null,"visib":"6+","altim":null,"vertVis":null,"wxString":null,"notDecoded":null,"clouds":[{"cover":"FEW","base":25000,"type":null}],"icgTurb":[],"temp":[]},{"timeFrom":1772838000,"timeTo":1772863200,"timeBec":null,"fcstChange":"FM","probability":null,"wdir":330,"wspd":10,"wgst":20,"wshearHgt":null,"wshearDir":null,"wshearSpd":null,"visib":"6+","altim":null,"vertVis":null,"wxString":null,"notDecoded":null,"clouds":[{"cover":"SKC","base":null,"type":null}],"icgTurb":[],"temp":[]},{"timeFrom":1772863200,"timeTo":1772892000,"timeBec":null,"fcstChange":"FM","probability":null,"wdir":310,"wspd":6,"wgst":null,"wshearHgt":null,"wshearDir":null,"wshearSpd":null,"visib":"6+","altim":null,"vertVis":null,"wxString":null,"notDecoded":null,"clouds":[{"cover":"SKC","base":null,"type":null}],"icgTurb":[],"temp":[]},{"timeFrom":1772892000,"timeTo":1772928000,"timeBec":null,"fcstChange":"FM","probability":null,"wdir":20,"wspd":5,"wgst":null,"wshearHgt":null,"wshearDir":null,"wshearSpd":null,"visib":"6+","altim":null,"vertVis":null,"wxString":null,"notDecoded":null,"clouds":[{"cover":"SKC","base":null,"type":null}],"icgTurb":[],"temp":[]}]},{"icaoId":"KSTS","dbPopTime":"2026-03-06T17:21:04.397Z","bulletinTime":"2026-03-06T17:20:00.000Z","issueTime":"2026-03-06T17:20:00.000Z","validTimeFrom":1772820000,"validTimeTo":1772906400,"rawTAF":"TAF KSTS 061720Z 0618/0718 01011KT P6SM SKC FM070800 34009KT P6SM SKC","mostRecent":1,"remarks":"","lat":38.5037,"lon":-122.811,"elev":35,"prior":4,"name":"Santa Rosa/Schulz Arpt","fcsts":[{"timeFrom":1772820000,"timeTo":1772870400,"timeBec":null,"fcstChange":null,"probability":null,"wdir":10,"wspd":11,"wgst":null,"wshearHgt":null,"wshearDir":null,"wshearSpd":null,"visib":"6+","altim":null,"vertVis":null,"wxString":null,"notDecoded":null,"clouds":[{"cover":"SKC","base":null,"type":null}],"icgTurb":[],"temp":[]},{"timeFrom":1772870400,"timeTo":1772906400,"timeBec":null,"fcstChange":"FM","probability":null,"wdir":340,"wspd":9,"wgst":null,"wshearHgt":null,"wshearDir":null,"wshearSpd":null,"visib":"6+","altim":null,"vertVis":null,"wxString":null,"notDecoded":null,"clouds":[{"cover":"SKC","base":null,"type":null}],"icgTurb":[],"temp":[]}]},{"icaoId":"KOAK","dbPopTime":"2026-03-06T17:21:04.417Z","bulletinTime":"2026-03-06T17:20:00.000Z","issueTime":"2026-03-06T17:20:00.000Z","validTimeFrom":1772820000,"validTimeTo":1772928000,"rawTAF":"TAF KOAK 061720Z 0618/0724 VRB06KT P6SM FEW250 FM061900 28010KT P6SM SKC FM062300 33013KT P6SM SKC FM070200 01006KT P6SM SKC FM071100 03006KT P6SM SKC","mostRecent":1,"remarks":"","lat":37.71779,"lon":-122.23299,"elev":3,"prior":5,"name":"Oakland Intl","fcsts":[{"timeFrom":1772820000,"timeTo":1772823600,"timeBec":null,"fcstChange":null,"probability":null,"wdir":"VRB","wspd":6,"wgst":null,"wshearHgt":null,"wshearDir":null,"wshearSpd":null,"visib":"6+","altim":null,"vertVis":null,"wxString":null,"notDecoded":null,"clouds":[{"cover":"FEW","base":25000,"type":null}],"icgTurb":[],"temp":[]},{"timeFrom":1772823600,"timeTo":1772838000,"timeBec":null,"fcstChange":"FM","probability":null,"wdir":280,"wspd":10,"wgst":null,"wshearHgt":null,"wshearDir":null,"wshearSpd":null,"visib":"6+","altim":null,"vertVis":null,"wxString":null,"notDecoded":null,"clouds":[{"cover":"SKC","base":null,"type":null}],"icgTurb":[],"temp":[]},{"timeFrom":1772838000,"timeTo":1772848800,"timeBec":null,"fcstChange":"FM","probability":null,"wdir":330,"wspd":13,"wgst":null,"wshearHgt":null,"wshearDir":null,"wshearSpd":null,"visib":"6+","altim":null,"vertVis":null,"wxString":null,"notDecoded":null,"clouds":[{"cover":"SKC","base":null,"type":null}],"icgTurb":[],"temp":[]},{"timeFrom":1772848800,"timeTo":1772881200,"timeBec":null,"fcstChange":"FM","probability":null,"wdir":10,"wspd":6,"wgst":null,"wshearHgt":null,"wshearDir":null,"wshearSpd":null,"visib":"6+","altim":null,"vertVis":null,"wxString":null,"notDecoded":null,"clouds":[{"cover":"SKC","base":null,"type":null}],"icgTurb":[],"temp":[]},{"timeFrom":1772881200,"timeTo":1772928000,"timeBec":null,"fcstChange":"FM","probability":null,"wdir":30,"wspd":6,"wgst":null,"wshearHgt":null,"wshearDir":null,"wshearSpd":null,"visib":"6+","altim":null,"vertVis":null,"wxString":null,"notDecoded":null,"clouds":[{"cover":"SKC","base":null,"type":null}],"icgTurb":[],"temp":[]}]},{"icaoId":"KLVK","dbPopTime":"2026-03-06T17:21:04.447Z","bulletinTime":"2026-03-06T17:20:00.000Z","issueTime":"2026-03-06T17:20:00.000Z","validTimeFrom":1772820000,"validTimeTo":1772906400,"rawTAF":"TAF KLVK 061720Z 0618/0718 01011KT P6SM SKC FM070300 05004KT P6SM SKC","mostRecent":1,"remarks":"","lat":37.69309,"lon":-121.81489,"elev":120,"prior":5,"name":"Livermore Muni","fcsts":[{"timeFrom":1772820000,"timeTo":1772852400,"timeBec":null,"fcstChange":null,"probability":null,"wdir":10,"wspd":11,"wgst":null,"wshearHgt":null,"wshearDir":null,"wshearSpd":null,"visib":"6+","altim":null,"vertVis":null,"wxString":null,"notDecoded":null,"clouds":[{"cover":"SKC","base":null,"type":null}],"icgTurb":[],"temp":[]},{"timeFrom":1772852400,"timeTo":1772906400,"timeBec":null,"fcstChange":"FM","probability":null,"wdir":50,"wspd":4,"wgst":null,"wshearHgt":null,"wshearDir":null,"wshearSpd":null,"visib":"6+","altim":null,"vertVis":null,"wxString":null,"notDecoded":null,"clouds":[{"cover":"SKC","base":null,"type":null}],"icgTurb":[],"temp":[]}]},{"icaoId":"KSJC","dbPopTime":"2026-03-06T17:21:04.465Z","bulletinTime":"2026-03-06T17:20:00.000Z","issueTime":"2026-03-06T17:20:00.000Z","validTimeFrom":1772820000,"validTimeTo":1772906400,"rawTAF":"TAF KSJC 061720Z 0618/0718 32010G20KT P6SM SKC FM070400 30007KT P6SM SKC","mostRecent":1,"remarks":"","lat":37.35938,"lon":-121.92444,"elev":13,"prior":4,"name":"San Jose Intl Arpt","fcsts":[{"timeFrom":1772820000,"timeTo":1772856000,"timeBec":null,"fcstChange":null,"probability":null,"wdir":320,"wspd":10,"wgst":20,"wshearHgt":null,"wshearDir":null,"wshearSpd":null,"visib":"6+","altim":null,"vertVis":null,"wxString":null,"notDecoded":null,"clouds":[{"cover":"SKC","base":null,"type":null}],"icgTurb":[],"temp":[]},{"timeFrom":1772856000,"timeTo":1772906400,"timeBec":null,"fcstChange":"FM","probability":null,"wdir":300,"wspd":7,"wgst":null,"wshearHgt":null,"wshearDir":null,"wshearSpd":null,"visib":"6+","altim":null,"vertVis":null,"wxString":null,"notDecoded":null,"clouds":[{"cover":"SKC","base":null,"type":null}],"icgTurb":[],"temp":[]}]},{"icaoId":"KSMF","dbPopTime":"2026-03-06T17:20:09.211Z","bulletinTime":"2026-03-06T17:20:00.000Z","issueTime":"2026-03-06T17:20:00.000Z","validTimeFrom":1772820000,"validTimeTo":1772906400,"rawTAF":"TAF KSMF 061720Z 0618/0718 34014G26KT P6SM FEW250 FM070300 34011KT P6SM SKC","mostRecent":1,"remarks":"","lat":38.70069,"lon":-121.59479,"elev":7,"prior":2,"name":"Sacramento Intl","fcsts":[{"timeFrom":1772820000,"timeTo":1772852400,"timeBec":null,"fcstChange":null,"probability":null,"wdir":340,"wspd":14,"wgst":26,"wshearHgt":null,"wshearDir":null,"wshearSpd":null,"visib":"6+","altim":null,"vertVis":null,"wxString":null,"notDecoded":null,"clouds":[{"cover":"FEW","base":25000,"type":null}],"icgTurb":[],"temp":[]},{"timeFrom":1772852400,"timeTo":1772906400,"timeBec":null,"fcstChange":"FM","probability":null,"wdir":340,"wspd":11,"wgst":null,"wshearHgt":null,"wshearDir":null,"wshearSpd":null,"visib":"6+","altim":null,"vertVis":null,"wxString":null,"notDecoded":null,"clouds":[{"cover":"SKC","base":null,"type":null}],"icgTurb":[],"temp":[]}]},{"icaoId":"KMER","dbPopTime":"2026-03-06T11:20:08.760Z","bulletinTime":"2026-03-06T11:20:00.000Z","issueTime":"2026-03-06T11:20:00.000Z","validTimeFrom":1772798400,"validTimeTo":1772884800,"rawTAF":"TAF KMER 061120Z 0612/0712 31005KT P6SM SKC AMD NOT SKED","mostRecent":1,"remarks":"","lat":37.392,"lon":-120.577,"elev":58,"prior":6,"name":"Castle AFB","fcsts":[{"timeFrom":1772798400,"timeTo":1772884800,"timeBec":null,"fcstChange":null,"probability":null,"wdir":310,"wspd":5,"wgst":null,"wshearHgt":null,"wshearDir":null,"wshearSpd":null,"visib":"6+","altim":null,"vertVis":null,"wxString":null,"notDecoded":null,"clouds":[{"cover":"SKC","base":null,"type":null}],"icgTurb":[],"temp":[]}]}]